XRISM                   
1 57800U 23137A   23271.36516744  .00004895  00000+0  39800-3 0  9995
2 57800  31.0027 241.3084 0009994 129.5075 230.6445 14.98006739  3124
